SAC-D
1 37673U 11024A   13363.45939838 +.00000000 +00000+0 +13199-4 6  9621
2 37673  98.0123   8.0992 0001508  72.7198 156.3081 14.72326946136791
